{
  "norad_id": 53603,
  "name": "STARLINK-4692",
  "history": [
    {
      "epoch": "2026-03-28T21:44:32.215488Z",
      "apogee_km": 540.6779971961741,
      "perigee_km": 538.8020073107027,
      "latitude_deg": 1.1983513348936587e-05,
      "longitude_deg": 0.5761179854703186,
      "height_km": 540.5519322714874,
      "semi_major_axis_km": 6917.877002253438,
      "eccentricity": 0.00013559,
      "inclination_deg": 53.2163,
      "raan_deg": 153.03,
      "arg_perigee_deg": 84.8822,
      "mean_anomaly_deg": 275.2325,
      "mean_motion_rev_day": 15.08841108
    },
    {
      "epoch": "2026-03-29T04:06:04.609152Z",
      "apogee_km": 540.6674186079172,
      "perigee_km": 538.8009769587552,
      "latitude_deg": 5.221166495351445e-06,
      "longitude_deg": -96.25951537049902,
      "height_km": 540.5383855339895,
      "semi_major_axis_km": 6917.871197783336,
      "eccentricity": 0.0001349,
      "inclination_deg": 53.2163,
      "raan_deg": 151.8405,
      "arg_perigee_deg": 84.3777,
      "mean_anomaly_deg": 275.7369,
      "mean_motion_rev_day": 15.08843007
    },
    {
      "epoch": "2026-03-30T03:56:51.889344Z",
      "apogee_km": 540.7050032768575,
      "perigee_km": 538.7984331461175,
      "latitude_deg": -2.8390377908494416e-05,
      "longitude_deg": -99.39638014025246,
      "height_km": 540.5613502590271,
      "semi_major_axis_km": 6917.888718211487,
      "eccentricity": 0.0001378,
      "inclination_deg": 53.2158,
      "raan_deg": 147.38,
      "arg_perigee_deg": 84.8306,
      "mean_anomaly_deg": 275.2843,
      "mean_motion_rev_day": 15.08837275
    },
    {
      "epoch": "2026-03-30T13:29:10.586112Z",
      "apogee_km": 540.6959974018,
      "perigee_km": 538.7920581853314,
      "latitude_deg": 1.592187476116293e-05,
      "longitude_deg": 115.34881668866947,
      "height_km": 540.6388509579261,
      "semi_major_axis_km": 6917.881027793565,
      "eccentricity": 0.00013761,
      "inclination_deg": 53.216,
      "raan_deg": 145.5948,
      "arg_perigee_deg": 89.9573,
      "mean_anomaly_deg": 270.1577,
      "mean_motion_rev_day": 15.08839791
    },
    {
      "epoch": "2026-03-31T13:19:57.784224Z",
      "apogee_km": 540.685304685504,
      "perigee_km": 538.8008741491458,
      "latitude_deg": -1.2355112788923816e-05,
      "longitude_deg": 112.21299949667163,
      "height_km": 540.6212293897307,
      "semi_major_axis_km": 6917.880089417325,
      "eccentricity": 0.0001362,
      "inclination_deg": 53.2158,
      "raan_deg": 141.135,
      "arg_perigee_deg": 88.9421,
      "mean_anomaly_deg": 271.1727,
      "mean_motion_rev_day": 15.08840098
    }
  ]
}